{"type": "FeatureCollection", "features": [ {"type": "Feature", "properties": {"norad_id": 37216, "name": "COSMO-SKYMED 4", "group": "resource", "lat": -61.453212382519, "lon": -26.938686477199607, "alt_km": 630.602619540774, "timestamp": "2025-12-12T11:38:31.073001+00:00", "meta": {"OBJECT_NAME": "COSMO-SKYMED 4", "OBJECT_ID": "2010-060A", "EPOCH": "2025-12-12T04:04:14.203776", "MEAN_MOTION": 14.82167044, "ECCENTRICITY": 0.0001373, "INCLINATION": 97.8808, "RA_OF_ASC_NODE": 167.5014, "ARG_OF_PERICENTER": 76.7973, "MEAN_ANOMALY": 283.3393, "EPHEMERIS_TYPE": 0, "CLASSIFICATION_TYPE": "U", "NORAD_CAT_ID": 37216, "ELEMENT_SET_NO": 999, "REV_AT_EPOCH": 81686, "BSTAR": 8.761e-05, "MEAN_MOTION_DOT": 6.46e-06, "MEAN_MOTION_DDOT": 0}, "tle": {"line1": "1 37216U 10060A   25346.16960884  .00000646  00000+0  87610-4 0  9999", "line2": "2 37216  97.8808 167.5014 0001373  76.7973 283.3393 14.82167044816865"}}, "geometry": {"type": "Point", "coordinates": [-26.938686477199607, -61.453212382519]}}, {"type": "Feature", "properties": {"norad_id": 37387, "name": "RESOURCESAT-2", "group": "resource", "lat": -78.62519251600631, "lon": 179.78143087752662, "alt_km": 830.8660528586433, "timestamp": "2025-12-12T11:38:31.073011+00:00", "meta": {"OBJECT_NAME": "RESOURCESAT-2", "OBJECT_ID": "2011-015A", "EPOCH": "2025-12-12T03:39:10.575072", "MEAN_MOTION": 14.21596886, "ECCENTRICITY": 0.0006468, "INCLINATION": 98.7878, "RA_OF_ASC_NODE": 49.7067, "ARG_OF_PERICENTER": 44.2209, "MEAN_ANOMALY": 315.9484, "EPHEMERIS_TYPE": 0, "CLASSIFICATION_TYPE": "U", "NORAD_CAT_ID": 37387, "ELEMENT_SET_NO": 999, "REV_AT_EPOCH": 75960, "BSTAR": 0.00012842, "MEAN_MOTION_DOT": 2.37e-06, "MEAN_MOTION_DDOT": 0}, "tle": {"line1": "1 37387U 11015A   25346.15220573  .00000237  00000+0  12842-3 0  9992", "line2": "2 37387  98.7878  49.7067 0006468  44.2209 315.9484 14.21596886759606"}}, "geometry": {"type": "Point", "coordinates": [179.78143087752662, -78.62519251600631]}}, {"type": "Feature", "properties": {"norad_id": 37781, "name": "HAIYANG-2A", "group": "resource", "lat": -10.205039028402446, "lon": -10.879394442289735, "alt_km": 972.1480886465597, "timestamp": "2025-12-12T11:38:31.073022+00:00", "meta": {"OBJECT_NAME": "HAIYANG-2A", "OBJECT_ID": "2011-043A", "EPOCH": "2025-12-12T04:43:33.238272", "MEAN_MOTION": 13.78834782, "ECCENTRICITY": 0.0001647, "INCLINATION": 99.3382, "RA_OF_ASC_NODE": 347.1395, "ARG_OF_PERICENTER": 83.2102, "MEAN_ANOMALY": 276.9237, "EPHEMERIS_TYPE": 0, "CLASSIFICATION_TYPE": "U", "NORAD_CAT_ID": 37781, "ELEMENT_SET_NO": 999, "REV_AT_EPOCH": 72091, "BSTAR": -7.3335e-05, "MEAN_MOTION_DOT": -1.19e-06, "MEAN_MOTION_DDOT": 0}, "tle": {"line1": "1 37781U 11043A   25346.19691248 -.00000119  00000+0 -73335-4 0  9992", "line2": "2 37781  99.3382 347.1395 0001647  83.2102 276.9237 13.78834782720914"}}, "geometry": {"type": "Point", "coordinates": [-10.879394442289735, -10.205039028402446]}}, {"type": "Feature", "properties": {"norad_id": 37791, "name": "RASAT", "group": "resource", "lat": 24.40225421184652, "lon": 72.05810254977814, "alt_km": 655.4473542204387, "timestamp": "2025-12-12T11:38:31.073032+00:00", "meta": {"OBJECT_NAME": "RASAT", "OBJECT_ID": "2011-044D", "EPOCH": "2025-12-12T05:13:34.489920", "MEAN_MOTION": 14.67908531, "ECCENTRICITY": 0.0021901, "INCLINATION": 98.0646, "RA_OF_ASC_NODE": 75.4828, "ARG_OF_PERICENTER": 66.5155, "MEAN_ANOMALY": 346.6099, "EPHEMERIS_TYPE": 0, "CLASSIFICATION_TYPE": "U", "NORAD_CAT_ID": 37791, "ELEMENT_SET_NO": 999, "REV_AT_EPOCH": 76575, "BSTAR": 0.00018696, "MEAN_MOTION_DOT": 1.024e-05, "MEAN_MOTION_DDOT": 0}, "tle": {"line1": "1 37791U 11044D   25346.21776030  .00001024  00000+0  18696-3 0  9992", "line2": "2 37791  98.0646  75.4828 0021901  66.5155 346.6099 14.67908531765758"}}, "geometry": {"type": "Point", "coordinates": [72.05810254977814, 24.40225421184652]}}, {"type": "Feature", "properties": {"norad_id": 37841, "name": "SRMSAT", "group": "resource", "lat": -11.998731339810634, "lon": -34.685219402404336, "alt_km": 853.7493044726789, "timestamp": "2025-12-12T11:38:31.073043+00:00", "meta": {"OBJECT_NAME": "SRMSAT", "OBJECT_ID": "2011-058D", "EPOCH": "2025-12-11T16:31:02.191584", "MEAN_MOTION": 14.1151099, "ECCENTRICITY": 0.00117304, "INCLINATION": 19.9707, "RA_OF_ASC_NODE": 114.3146, "ARG_OF_PERICENTER": 301.8177, "MEAN_ANOMALY": 177.8356, "EPHEMERIS_TYPE": 0, "CLASSIFICATION_TYPE": "U", "NORAD_CAT_ID": 37841, "ELEMENT_SET_NO": 999, "REV_AT_EPOCH": 73129, "BSTAR": 0.0001411213, "MEAN_MOTION_DOT": 5.25e-06, "MEAN_MOTION_DDOT": 0}, "tle": {"line1": "1 37841U 11058D   25345.68821981  .00000525  00000+0  14112-3 0  9993", "line2": "2 37841  19.9707 114.3146 0011730 301.8177 177.8356 14.11510990731297"}}, "geometry": {"type": "Point", "coordinates": [-34.685219402404336, -11.998731339810634]}}, {"type": "Feature", "properties": {"norad_id": 38012, "name": "PLEIADES 1A", "group": "resource", "lat": -8.669994791975537, "lon": -122.0001331753763, "alt_km": 702.2657463269225, "timestamp": "2025-12-12T11:38:31.073053+00:00", "meta": {"OBJECT_NAME": "PLEIADES 1A", "OBJECT_ID": "2011-076F", "EPOCH": "2025-12-12T04:33:19.736928", "MEAN_MOTION": 14.58561136, "ECCENTRICITY": 0.0001322, "INCLINATION": 98.1819, "RA_OF_ASC_NODE": 58.9663, "ARG_OF_PERICENTER": 74.07, "MEAN_ANOMALY": 5.0645, "EPHEMERIS_TYPE": 0, "CLASSIFICATION_TYPE": "U", "NORAD_CAT_ID": 38012, "ELEMENT_SET_NO": 999, "REV_AT_EPOCH": 74473, "BSTAR": 0.00018236, "MEAN_MOTION_DOT": 8.02e-06, "MEAN_MOTION_DDOT": 0}, "tle": {"line1": "1 38012U 11076F   25346.18981177  .00000802  00000+0  18236-3 0  9993", "line2": "2 38012  98.1819  58.9663 0001322  74.0700   5.0645 14.58561136744730"}}, "geometry": {"type": "Point", "coordinates": [-122.0001331753763, -8.669994791975537]}}, {"type": "Feature", "properties": {"norad_id": 38038, "name": "ZIYUAN 1-02C (ZY 1-02C)", "group": "resource", "lat": 63.47637197351424, "lon": -110.20540168871158, "alt_km": 754.1928932405872, "timestamp": "2025-12-12T11:38:31.073063+00:00", "meta": {"OBJECT_NAME": "ZIYUAN 1-02C (ZY 1-02C)", "OBJECT_ID": "2011-079A", "EPOCH": "2025-12-12T04:46:41.490048", "MEAN_MOTION": 14.38011706, "ECCENTRICITY": 0.000715, "INCLINATION": 98.4329, "RA_OF_ASC_NODE": 52.2222, "ARG_OF_PERICENTER": 139.9602, "MEAN_ANOMALY": 295.5923, "EPHEMERIS_TYPE": 0, "CLASSIFICATION_TYPE": "U", "NORAD_CAT_ID": 38038, "ELEMENT_SET_NO": 999, "REV_AT_EPOCH": 73233, "BSTAR": 0.00032906, "MEAN_MOTION_DOT": 9.53e-06, "MEAN_MOTION_DDOT": 0}, "tle": {"line1": "1 38038U 11079A   25346.19909132  .00000953  00000+0  32906-3 0  9993", "line2": "2 38038  98.4329  52.2222 0007150 139.9602 295.5923 14.38011706732331"}}, "geometry": {"type": "Point", "coordinates": [-110.20540168871158, 63.47637197351424]}}, {"type": "Feature", "properties": {"norad_id": 38046, "name": "ZIYUAN 3-1 (ZY 3-1)", "group": "resource", "lat": 28.5316124183537, "lon": -123.17629538186223, "alt_km": 363.08285875899674, "timestamp": "2025-12-12T11:38:31.073074+00:00", "meta": {"OBJECT_NAME": "ZIYUAN 3-1 (ZY 3-1)", "OBJECT_ID": "2012-001A", "EPOCH": "2025-12-12T04:52:30.610848", "MEAN_MOTION": 15.68468766, "ECCENTRICITY": 0.0001741, "INCLINATION": 97.1753, "RA_OF_ASC_NODE": 52.6077, "ARG_OF_PERICENTER": 353.7117, "MEAN_ANOMALY": 6.4123, "EPHEMERIS_TYPE": 0, "CLASSIFICATION_TYPE": "U", "NORAD_CAT_ID": 38046, "ELEMENT_SET_NO": 999, "REV_AT_EPOCH": 77488, "BSTAR": 0.00082171, "MEAN_MOTION_DOT": 0.00093354, "MEAN_MOTION_DDOT": 0}, "tle": {"line1": "1 38046U 12001A   25346.20313207  .00093354  00000+0  82171-3 0  9998", "line2": "2 38046  97.1753  52.6077 0001741 353.7117   6.4123 15.68468766774889"}}, "geometry": {"type": "Point", "coordinates": [-123.17629538186223, 28.5316124183537]}}, {"type": "Feature", "properties": {"norad_id": 38338, "name": "ARIRANG-3 (KOMPSAT-3)", "group": "resource", "lat": 79.25444301762752, "lon": -109.48348224025273, "alt_km": 681.1692641847776, "timestamp": "2025-12-12T11:38:31.073084+00:00", "meta": {"OBJECT_NAME": "ARIRANG-3 (KOMPSAT-3)", "OBJECT_ID": "2012-025B", "EPOCH": "2025-12-12T03:02:54.763872", "MEAN_MOTION": 14.61711516, "ECCENTRICITY": 0.0005404, "INCLINATION": 98.3321, "RA_OF_ASC_NODE": 300.7118, "ARG_OF_PERICENTER": 340.8336, "MEAN_ANOMALY": 19.266, "EPHEMERIS_TYPE": 0, "CLASSIFICATION_TYPE": "U", "NORAD_CAT_ID": 38338, "ELEMENT_SET_NO": 999, "REV_AT_EPOCH": 72401, "BSTAR": 0.00020464, "MEAN_MOTION_DOT": 9.71e-06, "MEAN_MOTION_DDOT": 0}, "tle": {"line1": "1 38338U 12025B   25346.12702273  .00000971  00000+0  20464-3 0  9994", "line2": "2 38338  98.3321 300.7118 0005404 340.8336  19.2660 14.61711516724014"}}, "geometry": {"type": "Point", "coordinates": [-109.48348224025273, 79.25444301762752]}}, {"type": "Feature", "properties": {"norad_id": 38709, "name": "EXACTVIEW-1 (ADS-1B)", "group": "resource", "lat": 63.740028604044305, "lon": -66.47280812936755, "alt_km": 806.3582655524715, "timestamp": "2025-12-12T11:38:31.073095+00:00", "meta": {"OBJECT_NAME": "EXACTVIEW-1 (ADS-1B)", "OBJECT_ID": "2012-039C", "EPOCH": "2025-12-12T04:21:53.212032", "MEAN_MOTION": 14.2490778, "ECCENTRICITY": 0.0010702, "INCLINATION": 98.9635, "RA_OF_ASC_NODE": 94.5601, "ARG_OF_PERICENTER": 355.8496, "MEAN_ANOMALY": 4.2591, "EPHEMERIS_TYPE": 0, "CLASSIFICATION_TYPE": "U", "NORAD_CAT_ID": 38709, "ELEMENT_SET_NO": 999, "REV_AT_EPOCH": 69607, "BSTAR": 0.00013515, "MEAN_MOTION_DOT": 2.69e-06, "MEAN_MOTION_DDOT": 0}, "tle": {"line1": "1 38709U 12039C   25346.18186588  .00000269  00000+0  13515-3 0  9991", "line2": "2 38709  98.9635  94.5601 0010702 355.8496   4.2591 14.24907780696075"}}, "geometry": {"type": "Point", "coordinates": [-66.47280812936755, 63.740028604044305]}}]}